NORAD_CAT_ID,OBJECT_NAME,OBJECT_TYPE,EPOCH,MEAN_MOTION,ECCENTRICITY,INCLINATION,RA_OF_ASC_NODE,ARG_OF_PERICENTER,MEAN_ANOMALY,BSTAR,MEAN_MOTION_DOT,MEAN_MOTION_DDOT,TLE_LINE0,TLE_LINE1,TLE_LINE2,SEMIMAJOR_AXIS,PERIOD,APOGEE,PERIGEE,DECAYED
50174.0,STARLINK-3292,PAYLOAD,2022-07-13 19:32:42,15.08845227,0.000271,53.2192,121.6231,65.595,294.5325,2.575800000000001e-05,1.21e-06,0.0,0 STARLINK-3292,1 50174U 21125U   22194.81437920  .00000121  00000-0  25758-4 0  9995,2 50174  53.2192 121.6231 0002710  65.5950 294.5325 15.08845227 34590,6917.864000000001,95.437,541.604,537.855,0.0
50174.0,STARLINK-3292,PAYLOAD,2022-07-14 01:54:16,15.088273999999998,0.0002631999999999,53.2195,120.4353,63.5234,296.6028,-0.00011443,-2.109e-05,0.0,0 STARLINK-3292,1 50174U 21125U   22195.07935335 -.00002109  00000-0 -11443-3 0  9992,2 50174  53.2195 120.4353 0002632  63.5234 296.6028 15.08827400 34632,6917.919,95.438,541.605,537.9630000000002,0.0
50174.0,STARLINK-3292,PAYLOAD,2022-07-14 11:26:34,15.08829895,0.0002552,53.2193,118.6503,64.8613,295.2644,-4.8137e-05,-1.054e-05,0.0,0 STARLINK-3292,1 50174U 21125U   22195.47679212 -.00001054  00000-0 -48137-4 0  9994,2 50174  53.2193 118.6503 0002552  64.8613 295.2644 15.08829895 35227,6917.911,95.438,541.5419999999998,538.011,0.0
50174.0,STARLINK-3292,PAYLOAD,2022-07-14 17:48:07,15.08833069,0.0002537,53.2183,117.4602,64.4403,295.6851,-4.0893e-05,-9.39e-06,0.0,0 STARLINK-3292,1 50174U 21125U   22195.74175106 -.00000939  00000-0 -40893-4 0  9999,2 50174  53.2183 117.4602 0002537  64.4403 295.6851 15.08833069 34736,6917.901999999999,95.438,541.5219999999998,538.012,0.0
50174.0,STARLINK-3292,PAYLOAD,2022-07-15 11:17:22,15.08825669,0.0002549,53.2177,114.1894,63.1312,296.994,-3.8828e-05,-9.06e-06,0.0,0 STARLINK-3292,1 50174U 21125U   22196.47040092 -.00000906  00000-0 -38828-4 0  9994,2 50174  53.2177 114.1894 0002549  63.1312 296.9940 15.08825669 34846,6917.924,95.438,541.553,538.026,0.0
50174.0,STARLINK-3292,PAYLOAD,2022-07-15 17:38:55,15.08818626,0.0002457,53.2174,112.9985,61.8734,298.2506,0.00011712,1.575e-05,0.0,0 STARLINK-3292,1 50174U 21125U   22196.73536156  .00001575  00000-0  11712-3 0  9997,2 50174  53.2174 112.9985 0002457  61.8734 298.2506 15.08818626 35413,6917.946,95.439,541.51,538.111,0.0
50174.0,STARLINK-3292,PAYLOAD,2022-07-16 00:00:27,15.0882818,0.0002527,53.2175,111.8107,62.2987,297.8261,0.00019131,2.757e-05,0.0,0 STARLINK-3292,1 50174U 21125U   22197.00031685  .00002757  00000-0  19131-3 0  9991,2 50174  53.2175 111.8107 0002527  62.2987 297.8261 15.08828180 34925,6917.917,95.438,541.53,538.033,0.0
50174.0,STARLINK-3292,PAYLOAD,2022-07-16 11:08:08,15.0883851,0.0002492,53.2178,109.7285,65.3161,294.8091,0.00023622,3.473e-05,0.0,0 STARLINK-3292,1 50174U 21125U   22197.46399113  .00003473  00000-0  23622-3 0  9990,2 50174  53.2178 109.7285 0002492  65.3161 294.8091 15.08838510 34993,6917.885,95.438,541.474,538.026,0.0
50174.0,STARLINK-3292,PAYLOAD,2022-07-17 10:58:56,15.08837208,0.0002592,53.2171,105.2672,63.603,296.5228,0.00013433,1.85e-05,0.0,0 STARLINK-3292,1 50174U 21125U   22198.45759586  .00001850  00000-0  13433-3 0  9990,2 50174  53.2171 105.2672 0002592  63.6030 296.5228 15.08837208 35146,6917.889,95.438,541.547,537.961,0.0
50174.0,STARLINK-3292,PAYLOAD,2022-07-17 17:20:28,15.08838216,0.0002499,53.217,104.0789,65.5896,294.5356,0.0001134,1.517e-05,0.0,0 STARLINK-3292,1 50174U 21125U   22198.72255580  .00001517  00000-0  11340-3 0  9990,2 50174  53.2170 104.0789 0002499  65.5896 294.5356 15.08838216 35711,6917.886,95.438,541.48,538.0219999999998,0.0
50174.0,STARLINK-3292,PAYLOAD,2022-07-18 02:52:48,15.08835714,0.0002336,53.2177,102.2938,66.3105,293.8132,-4.3851e-05,-9.86e-06,0.0,0 STARLINK-3292,1 50174U 21125U   22199.12000209 -.00000986  00000-0 -43851-4 0  9995,2 50174  53.2177 102.2938 0002336  66.3105 293.8132 15.08835714 35248,6917.893,95.438,541.375,538.1419999999998,0.0
50174.0,STARLINK-3292,PAYLOAD,2022-07-18 10:49:43,15.08842088,0.0002319,53.2179,100.8079,67.166,292.9577,-2.8391e-05,-7.400000000000001e-06,0.0,0 STARLINK-3292,1 50174U 21125U   22199.45119770 -.00000740  00000-0 -28391-4 0  9995,2 50174  53.2179 100.8079 0002319  67.1660 292.9577 15.08842088 35825,6917.874,95.437,541.3430000000002,538.135,0.0
50174.0,STARLINK-3292,PAYLOAD,2022-07-18 17:11:16,15.08834296,0.0002272,53.2177,99.6187,68.0735,292.0498,-2.2337e-05,-6.44e-06,0.0,0 STARLINK-3292,1 50174U 21125U   22199.71616250 -.00000644  00000-0 -22337-4 0  9996,2 50174  53.2177  99.6187 0002272  68.0735 292.0498 15.08834296 35868,6917.898,95.438,541.335,538.191,0.0
50174.0,STARLINK-3292,PAYLOAD,2022-07-19 10:40:30,15.08842889,0.0002163,53.2176,96.3476,70.1389,289.9836,-3.2023e-05,-7.98e-06,0.0,0 STARLINK-3292,1 50174U 21125U   22200.44479919 -.00000798  00000-0 -32023-4 0  9991,2 50174  53.2176  96.3476 0002163  70.1389 289.9836 15.08842889 35442,6917.871999999999,95.437,541.2330000000002,538.24,0.0
50174.0,STARLINK-3292,PAYLOAD,2022-07-19 21:48:11,15.08847458,0.0002078,53.2176,94.2655,67.3561,292.7651,0.00020528,2.981e-05,0.0,0 STARLINK-3292,1 50174U 21125U   22200.90846933  .00002981  00000-0  20528-3 0  9996,2 50174  53.2176  94.2655 0002078  67.3561 292.7651 15.08847458 36044,6917.858,95.437,541.16,538.285,0.0
50174.0,STARLINK-3292,PAYLOAD,2022-07-20 02:34:20,15.08851017,0.0002143,53.2175,93.3734,67.8234,292.2985,0.0002443,3.603e-05,0.0,0 STARLINK-3292,1 50174U 21125U   22201.10718647  .00003603  00000-0  24430-3 0  9997,2 50174  53.2175  93.3734 0002143  67.8234 292.2985 15.08851017 36070,6917.847,95.437,541.194,538.229,0.0
50174.0,STARLINK-3292,PAYLOAD,2022-07-20 20:03:35,15.08846961,0.0001821,53.2172,90.1018,66.8494,293.269,0.00020974,3.052e-05,0.0,0 STARLINK-3292,1 50174U 21125U   22201.83582682  .00003052  00000-0  20974-3 0  9992,2 50174  53.2172  90.1018 0001821  66.8494 293.2690 15.08846961 36184,6917.859,95.437,540.984,538.464,0.0
50174.0,STARLINK-3292,PAYLOAD,2022-07-21 02:25:08,15.08845373,0.0001991,53.2164,88.9115,68.4356,291.6848,0.00013054,1.7899999999999998e-05,0.0,0 STARLINK-3292,1 50174U 21125U   22202.10079087  .00001790  00000-0  13054-3 0  9991,2 50174  53.2164  88.9115 0001991  68.4356 291.6848 15.08845373 35699,6917.864000000001,95.437,541.106,538.352,0.0
50174.0,STARLINK-3292,PAYLOAD,2022-07-21 16:43:37,15.08826513,0.0002151999999999,53.2155,86.2357,67.5575,292.5645,-0.00027267,-4.624e-05,0.0,0 STARLINK-3292,1 50174U 21125U   22202.69696475 -.00004624  00000-0 -27267-3 0  9993,2 50174  53.2155  86.2357 0002152  67.5575 292.5645 15.08826513 35781,6917.922,95.438,541.275,538.298,0.0
50174.0,STARLINK-3292,PAYLOAD,2022-07-22 02:15:56,15.08830429,0.0001962,53.2164,84.4526,63.0168,297.1024,-0.00020352,-3.525e-05,0.0,0 STARLINK-3292,1 50174U 21125U   22203.09440526 -.00003525  00000-0 -20352-3 0  9999,2 50174  53.2164  84.4526 0001962  63.0168 297.1024 15.08830429 36375,6917.91,95.438,541.132,538.4169999999998,0.0
50174.0,STARLINK-3292,PAYLOAD,2022-07-22 08:37:29,15.08829993,0.0001942,53.2163,83.2635,63.025,297.0941,-0.00016517,-2.915e-05,0.0,0 STARLINK-3292,1 50174U 21125U   22203.35936750 -.00002915  00000-0 -16517-3 0  9997,2 50174  53.2163  83.2635 0001942  63.0250 297.0941 15.08829993 35888,6917.911,95.438,541.119,538.433,0.0
50174.0,STARLINK-3292,PAYLOAD,2022-07-23 02:06:43,15.08843504,0.0001855,53.2167,79.9926,61.2085,298.9093,0.00026232,3.89e-05,0.0,0 STARLINK-3292,1 50174U 21125U   22204.08800472  .00003890  00000-0  26232-3 0  9995,2 50174  53.2167  79.9926 0001855  61.2085 298.9093 15.08843504 35990,6917.87,95.437,541.018,538.451,0.0
50174.0,STARLINK-3292,PAYLOAD,2022-07-23 08:28:16,15.08844887,0.000185,53.2167,78.8032,61.412,298.7058,0.00039826,6.057e-05,0.0,0 STARLINK-3292,1 50174U 21125U   22204.35296651  .00006057  00000-0  39826-3 0  9994,2 50174  53.2167  78.8032 0001850  61.4120 298.7058 15.08844887 36561,6917.865,95.437,541.01,538.451,0.0
50174.0,STARLINK-3292,PAYLOAD,2022-07-23 21:11:21,15.08846913,0.0001808,53.2169,76.4243,61.1725,298.9448,0.00023178,3.403e-05,0.0,0 STARLINK-3292,1 50174U 21125U   22204.88288577  .00003403  00000-0  23178-3 0  9995,2 50174  53.2169  76.4243 0001808  61.1725 298.9448 15.08846913 36648,6917.859,95.437,540.975,538.474,0.0
50174.0,STARLINK-3292,PAYLOAD,2022-07-24 01:57:30,15.08839138,0.0001796,53.2174,75.5331,61.3854,298.7319,-9.9948e-05,-1.878e-05,0.0,0 STARLINK-3292,1 50174U 21125U   22205.08160761 -.00001878  00000-0 -99948-4 0  9997,2 50174  53.2174  75.5331 0001796  61.3854 298.7319 15.08839138 36144,6917.8830000000025,95.438,540.99,538.506,0.0
50174.0,STARLINK-3292,PAYLOAD,2022-07-24 08:19:03,15.08833821,0.000187,53.2168,74.343,62.387,297.7312,-0.00012685,-2.306e-05,0.0,0 STARLINK-3292,1 50174U 21125U   22205.34656997 -.00002306  00000-0 -12685-3 0  9996,2 50174  53.2168  74.3430 0001870  62.3870 297.7312 15.08833821 36714,6917.899,95.438,541.058,538.471,0.0
50174.0,STARLINK-3292,PAYLOAD,2022-07-24 21:02:08,15.08835526,0.0001781999999999,53.2168,71.9641,64.3967,295.721,2.7672000000000004e-06,-2.44e-06,0.0,0 STARLINK-3292,1 50174U 21125U   22205.87649122 -.00000244  00000-0  27672-5 0  9998,2 50174  53.2168  71.9641 0001782  64.3967 295.7210 15.08835526 36799,6917.894,95.438,540.992,538.526,0.0
50174.0,STARLINK-3292,PAYLOAD,2022-07-25 08:09:50,15.08838532,0.0001681,53.2165,69.8826,61.9368,298.1794,0.00014691,2.051e-05,0.0,0 STARLINK-3292,1 50174U 21125U   22206.34017176  .00002051  00000-0  14691-3 0  9991,2 50174  53.2165  69.8826 0001681  61.9368 298.1794 15.08838532 36337,6917.885,95.438,540.913,538.587,0.0
50174.0,STARLINK-3292,PAYLOAD,2022-07-25 20:52:55,15.08843429,0.0001743,53.2169,67.5032,64.5164,295.6008,0.00022891,3.357e-05,0.0,0 STARLINK-3292,1 50174U 21125U   22206.87009036  .00003357  00000-0  22891-3 0  9996,2 50174  53.2169  67.5032 0001743  64.5164 295.6008 15.08843429 36945,6917.87,95.437,540.941,538.529,0.0
